[{"OBJECT_NAME":"STARLINK-4560","OBJECT_ID":"2022-105AV","EPOCH":"2026-03-09T16:15:58.893408","MEAN_MOTION":15.05644164,"ECCENTRICITY":0.00023144,"INCLINATION":97.6028,"RA_OF_ASC_NODE":311.1972,"ARG_OF_PERICENTER":83.4484,"MEAN_ANOMALY":276.7006,"EPHEMERIS_TYPE":0,"CLASSIFICATION_TYPE":"U","NORAD_CAT_ID":53691,"ELEMENT_SET_NO":999,"REV_AT_EPOCH":19330,"BSTAR":1.8233297e-5,"MEAN_MOTION_DOT":2.02e-6,"MEAN_MOTION_DDOT":0},{"OBJECT_NAME":"UMBRA-07","OBJECT_ID":"2023-174AT","EPOCH":"2026-03-09T17:14:20.565312","MEAN_MOTION":15.07174057,"ECCENTRICITY":0.00041314,"INCLINATION":97.3902,"RA_OF_ASC_NODE":128.3323,"ARG_OF_PERICENTER":75.5473,"MEAN_ANOMALY":284.6213,"EPHEMERIS_TYPE":0,"CLASSIFICATION_TYPE":"U","NORAD_CAT_ID":58297,"ELEMENT_SET_NO":999,"REV_AT_EPOCH":12842,"BSTAR":0.0008461425,"MEAN_MOTION_DOT":0.00012685,"MEAN_MOTION_DDOT":0}]
